24903,IRIDIUM 26,1997,100.21,-1.0,-,86.4,Inactive,0,LEO,USA,USA,Unknown,Unknown,Unknown,1 24903U 97043A   25085.88533760  .00001112  00000+0  36846-3 0  9995,2 24903  86.3983 145.1951 0002297  88.5018 271.6443 14.37053637444922,14.37053637,0.0002297,LEO
24907,IRIDIUM 22,1997,100.29,-1.0,-,86.4,Inactive,0,LEO,USA,USA,Unknown,Unknown,Unknown,1 24907U 97043E   25085.88685800  .00000994  00000+0  33660-3 0  9990,2 24907  86.3996 148.6590 0002230  94.1412 266.0039 14.35877859444966,14.35877859,0.000223,LEO
24925,DUMMY MASS 1,1997,96.85,-1.0,-,86.34,Inactive,0,LEO,PRC,China,Unknown,Unknown,Unknown,1 24925U 97048A   25085.57529585  .00001308  00000+0  14328-3 0  9998,2 24925  86.3413 173.5030 0009015  82.6662 277.5587 14.86890011492850,14.86890011,0.0009015,LEO
24926,DUMMY MASS 2,1997,96.86,-1.0,-,86.34,Inactive,0,LEO,PRC,China,Unknown,Unknown,Unknown,1 24926U 97048B   25086.19680945  .00001345  00000+0  14835-3 0  9990,2 24926  86.3415 174.8063 0009828  89.4359 270.7992 14.86645042492962,14.86645042,0.0009828,LEO
24944,IRIDIUM 29,1997,100.25,-1.0,-,86.4,Inactive,0,LEO,Kazakhstan,USA,Unknown,Unknown,Unknown,1 24944U 97051A   25085.65997877  .00001222  00000+0  41126-3 0  9996,2 24944  86.4033 178.4832 0002186 100.8660 259.2783 14.36371417441428,14.36371417,0.0002186,LEO
24946,IRIDIUM 33,1997,100.36,-1.0,-,86.39,Inactive,0,LEO,Kazakhstan,USA,Unknown,Unknown,Unknown,1 24946U 97051C   25086.10987213  .00000864  00000+0  29758-3 0  9990,2 24946  86.3947 177.5490 0007434   2.6597 357.4637 14.34828316440984,14.34828316,0.0007434,LEO
24948,IRIDIUM 28,1997,100.19,-1.0,-,86.4,Inactive,0,LEO,Kazakhstan,USA,Unknown,Unknown,Unknown,1 24948U 97051E   25085.75640434  .00001176  00000+0  38818-3 0  9997,2 24948  86.4037 176.0088 0002173  83.4466 276.6979 14.37301792442004,14.37301792,0.0002173,LEO
24967,IRIDIUM 36,1997,100.17,-1.0,-,86.4,Inactive,0,LEO,USA,USA,Unknown,Unknown,Unknown,1 24967U 97056C   25085.73224661  .00001437  00000+0  47357-3 0  9999,2 24967  86.4019 207.5918 0001862  92.3137 267.8273 14.37507912440374,14.37507912,0.0001862,LEO
